APRIZESAT 2             
1 28366U 04025A   18246.71895723 -.00000002  00000-0  13104-4 0  9995
2 28366  98.3176 151.3702 0108015 162.2225 198.2788 14.36650573743271
SAUDICOMSAT 1           
1 28369U 04025D   18246.79918671  .00000026  00000-0  17399-4 0  9999
2 28369  98.2490 195.0099 0034884  98.0740 262.4416 14.52448862751125
SAUDICOMSAT 2           
1 28370U 04025E   18247.45897148  .00000005  00000-0  13767-4 0  9992
2 28370  98.3488 190.4729 0056754 237.3147 122.2565 14.47388177748729
APRIZESAT 1             
1 28372U 04025G   18247.41952875  .00000035  00000-0  20690-4 0  9995
2 28372  98.3057 192.5403 0046535 169.4683 190.7496 14.49557637749928
NANOSAT-1               
1 28493U 04049B   18247.44822598  .00000035  00000-0  13275-4 0  9997
2 28493  98.1602 325.4670 0005230  40.5063 319.6533 14.73441477736344
SAUDICOMSAT 7           
1 31119U 07012C   18247.43799257  .00000028  00000-0  14813-4 0  9994
2 31119  98.0078 200.0246 0061458 104.5701 256.2327 14.61678586606859
SAUDICOMSAT 6           
1 31121U 07012E   18246.89379586  .00000029  00000-0  16002-4 0  9998
2 31121  98.0696 193.0553 0076590 179.3649 180.7661 14.58478735605406
SAUDICOMSAT 5           
1 31124U 07012H   18247.47154031  .00000045  00000-0  17635-4 0  9993
2 31124  97.9694 203.8037 0053043  67.7529 292.9288 14.63376180607520
SAUDICOMSAT 3           
1 31125U 07012J   18247.55310673  .00000082  00000-0  23801-4 0  9992
2 31125  97.9292 207.8938 0044170  31.7657 328.6198 14.65109781608210
SAUDICOMSAT 4           
1 31127U 07012L   18247.40745800  .00000024  00000-0  14502-4 0  9996
2 31127  98.0385 197.0870 0068942 138.9785 221.6630 14.60190709606235
APRIZESAT 4             
1 35684U 09041D   18246.87846672  .00000039  00000-0  12734-4 0  9992
2 35684  98.1808 200.3357 0048516 108.8639 251.7841 14.79149291490717
APRIZESAT 3             
1 35686U 09041F   18246.95381815  .00000044  00000-0  11588-4 0  9998
2 35686  98.2684 270.1899 0073334  12.7617 347.5432 14.87233181493098
AISSAT 1                
1 36797U 10035C   18246.93603459  .00000118  00000-0  19977-4 0  9998
2 36797  98.0846  11.5938 0010953 356.4829   3.6307 14.86069550441070
OBJECT G                
1 43186U 18014G   18247.32378658 -.00000415  00000-0 -31397-4 0  9999
2 43186  97.7185 154.7594 0009692 245.3842 114.6370 14.96493760 32152
OBJECT H                
1 43187U 18014H   18247.32366442 -.00000417  00000-0 -31607-4 0  9994
2 43187  97.7182 154.7546 0009688 245.3827 114.6386 14.96494549 32158
OBJECT J                
1 43188U 18014J   18247.32354608 -.00000422  00000-0 -32041-4 0  9995
2 43188  97.7185 154.7615 0009680 245.5159 114.5053 14.96495285 32159
OBJECT K                
1 43189U 18014K   18247.52430283 -.00000413  00000-0 -31241-4 0  9993
2 43189  97.7181 154.9514 0009695 244.4856 115.5364 14.96493988 30730
